1 45082U 20006AQ  22365.49269217  .00002643  00000-0  19616-3 0  9996
2 45082  53.0538  92.8967 0001994  57.3181 302.8000 15.06416645161261
1 45082U 20006AQ  22365.55903871  .00003141  00000-0  22959-3 0  9992
2 45082  53.0545  92.5990 0002067  56.8313 303.2874 15.06415746161271
1 45082U 20006AQ  23001.42155292 -.00003691  00000-0 -22901-3 0  9991
2 45082  53.0544  88.7265 0002137  57.5666 302.5529 15.06395756161401
1 45082U 20006AQ  23001.62059247 -.00004107  00000-0 -25701-3 0  9990
2 45082  53.0543  87.8334 0001775  51.6434 308.4714 15.06395778161430
1 45082U 20006AQ  23002.48311016 -.00000623  00000-0 -22937-4 0  9998
2 45082  53.0546  83.9618 0001850  49.7259 310.3892 15.06392525161562
1 45082U 20006AQ  23002.61580393  .00000256  00000-0  36112-4 0  9999
2 45082  53.0543  83.3661 0001978  48.2358 311.8800 15.06394819161581
1 45082U 20006AQ  23003.47832007  .00005899  00000-0  41463-3 0  9998
2 45082  53.0543  79.4946 0001938  49.7207 310.3951 15.06396221161713
1 45082U 20006AQ  23004.47351723  .00005751  00000-0  40458-3 0  9990
2 45082  53.0541  75.0279 0002063  48.9203 311.1964 15.06410718161866
1 45082U 20006AQ  23005.46870689  .00005915  00000-0  41542-3 0  9994
2 45082  53.0545  70.5598 0002057  46.4986 313.6174 15.06423089162011
1 45082U 20006AQ  23006.53026332 -.00006423  00000-0 -41281-3 0  9998
2 45082  53.0543  65.7942 0001973  38.4685 321.6444 15.06385963162175
1 45082U 20006AQ  23007.19373346  .00002154  00000-0  16347-3 0  9991
2 45082  53.0538  62.8153 0002022  36.3697 323.7429 15.06396424162278
1 45082U 20006AQ  23007.52547115  .00010462  00000-0  72022-3 0  9998
2 45082  53.0537  61.3262 0001968  36.6115 323.5008 15.06398711162326
1 45082U 20006AQ  23008.38798740  .00002291  00000-0  17269-3 0  9998
2 45082  53.0535  57.4542 0002086  43.0677 317.0475 15.06391995162455
1 45082U 20006AQ  23009.38318480  .00008388  00000-0  58113-3 0  9994
2 45082  53.0537  52.9862 0002208  42.8224 317.2937 15.06411460162605
1 45082U 20006AQ  23010.44473914 -.00001660  00000-0 -92577-4 0  9998
2 45082  53.0545  48.2211 0002143  38.3700 321.7441 15.06390773162767
1 45082U 20006AQ  23011.37358753  .00012125  00000-0  83103-3 0  9994
2 45082  53.0544  44.0515 0002208  36.2324 323.8814 15.06418949162907
1 45082U 20006AQ  23011.77167109  .00005304  00000-0  37463-3 0  9990
2 45082  53.0525  42.2626 0002277  33.3911 326.7221 15.06405199162968
1 45082U 20006AQ  23012.76689197  .00012487  00000-0  85605-3 0  9997
2 45082  53.0542  37.7969 0002058  52.5416 307.5759 15.06384563163118
1 45082U 20006AQ  23013.49670824  .00018386  00000-0  12496-2 0  9996
2 45082  53.0539  34.5205 0002118  55.8174 304.3015 15.06410734163228
1 45082U 20006AQ  23013.76209700  .00011610  00000-0  79699-3 0  9999
2 45082  53.0530  33.3248 0002067  59.5819 300.5374 15.06401221163264
1 45082U 20006AQ  23015.42076847  .00033665  00000-0  22672-2 0  9990
2 45082  53.0539  25.8832 0002093  74.2916 285.8304 15.06416042163512
1 45082U 20006AQ  23015.75250561  .00022022  00000-0  14923-2 0  9998
2 45082  53.0536  24.3948 0002880  75.2931 284.8377 15.06409187163569
1 45082U 20006AQ  23016.28327068  .00018411  00000-0  12507-2 0  9997
2 45082  53.0548  22.0105 0001982  82.1276 277.9938 15.06428011163645
1 45082U 20006AQ  23017.61022444  .00001470  00000-0  11760-3 0  9993
2 45082  53.0544  16.0532 0002064  70.9836 289.1377 15.06384899163846
1 45082U 20006AQ  23018.47272999  .00034604  00000-0  23284-2 0  9998
2 45082  53.0539  12.1815 0001943  93.1064 267.0147 15.06435234163970
1 45082U 20006AQ  23018.67177813  .00012813  00000-0  87732-3 0  9996
2 45082  53.0556  11.2886 0003508  97.4872 262.6516 15.06407417164008
1 45082U 20006AQ  23019.26888591  .00024940  00000-0  16861-2 0  9992
2 45082  53.0539   8.6085 0001858 103.9577 256.1618 15.06426235164090
1 45082U 20006AQ  23020.33044223  .00030878  00000-0  20831-2 0  9997
2 45082  53.0534   3.8417 0001848  88.3698 271.7502 15.06394105164253
1 45082U 20006AQ  23025.57184959  .00006785  00000-0  47387-3 0  9995
2 45082  53.0546 340.3127 0001651  98.0391 262.0785 15.06406912165047
1 45082U 20006AQ  23026.10262542  .00001167  00000-0  97240-4 0  9993
2 45082  53.0557 337.9312 0001974  95.2775 264.8439 15.06400674165124
1 45082U 20006AQ  23027.23051798  .00001065  00000-0  90370-4 0  9991
2 45082  53.0547 332.8668 0001674  93.6347 266.4833 15.06406013165630
1 45082U 20006AQ  23027.82764590  .00000569  00000-0  57133-4 0  9995
2 45082  53.0540 330.1839 0001555 102.9786 257.1377 15.06392758165385
1 45082U 20006AQ  23028.15937699  .00000428  00000-0  47605-4 0  9991
2 45082  53.0548 328.6952 0001560  97.0944 263.0223 15.06402947165778
1 45082U 20006AQ  23028.88919886  .00000503  00000-0  52647-4 0  9995
2 45082  53.0545 325.4197 0001530  91.1337 268.9827 15.06394350165546
1 45082U 20006AQ  23029.81805172  .00000896  00000-0  79065-4 0  9999
2 45082  53.0540 321.2495 0001410  86.1919 273.9231 15.06398235165689
1 45082U 20006AQ  23030.21612603  .00002158  00000-0  16370-3 0  9992
2 45082  53.0542 319.4627 0001457  89.4214 270.6942 15.06406682165748
1 45082U 20006AQ  23031.21133470  .00001408  00000-0  11343-3 0  9995
2 45082  53.0536 314.9953 0001413  78.9585 281.1563 15.06398377165892
